QIANKUN-1               
1 57422U 23103B   26066.09004067 -.00000717  16817-5 -20836-6 0  9995
2 57422  96.1945 117.7831 0035441 171.2462 188.9450 16.07904604150899
OBJECT B                
1 57425U 23104B   26065.84989399  .00341259  47780-4  88740-3 0  9995
2 57425  97.2687 154.4383 0003298 311.8555  48.2439 15.95006754147624
INTUITION-1             
1 58565U 23174CW  26066.20753029  .00528849  11357-3  15003-2 0  9991
2 58565  97.3739 162.3954 0003539 240.2673 119.8249 15.93359015130484
STARLINK-31145          
1 58768U 24011D   26066.16670139  .00519472  12028-3  13276-2 0  9990
2 58768  53.1222  15.1159 0011920  99.8656 143.6803 15.94671893  6025
SENTRY                  
1 59140U 24043AU  26065.93928372  .00381404  57742-4  11436-2 0  9990
2 59140  97.5288 219.9826 0004619 247.0039 113.0748 15.92278298112621
OBJECT B                
1 59678U 24085B   26066.24442105  .00627374  17025-3  14728-2 0  9997
2 59678  97.3361 158.4370 0010388 297.0999  62.9218 15.96827108103020
OBJECT D                
1 59813U 24095D   26066.06625581  .00695319  20541-3  18474-2 0  9993
2 59813  97.5286 170.0092 0005463 260.2618  99.8040 15.94606565100476
RUZAEVKA 390 (RS44S)    
1 61766U 24199AH  26066.17701811  .01804327  27609-2  18125-2 0  9997
2 61766  97.2781 308.3911 0002752 172.4659 187.6668 16.11800645119125
BANDWAGON-2 OBJECT X    
1 62398U 24247X   26066.02613467  .00985197  44876-3  23264-2 0  9996
2 62398  44.9847  68.6418 0012219  97.4102 262.8196 15.95935511 68076
SZ-19 DEB               
1 63801U 24194E   26065.99331413  .00835167  77738-5  47180-3 0  9990
2 63801  41.4583 178.3648 0011254  26.2032 333.9395 16.18078834 48788
COSMOS 2591             
1 65267U 25182A   26064.73946101  .00075753  40430-5  18326-3 0  9999
2 65267  96.5938 358.0583 0007944 172.1859 187.9545 15.96401340 31193
COSMOS 2592             
1 65268U 25182B   26065.94614520  .00004153  18599-5  11358-4 0  9997
2 65268  96.5888 359.1985 0006567 170.8591 189.2809 15.96450534 31382
COSMOS 2593             
1 65269U 25182C   26064.58275646  .00023585  20678-5  58016-4 0  9992
2 65269  96.5882 357.8369 0007309 166.2302 193.9177 15.96412483 31169
COSMOS 2594             
1 65270U 25182D   26065.16257574  .00107567  62806-5  25822-3 0  9999
2 65270  96.5909 358.3740 0007121 166.0438 194.1039 15.96514018 31279
ISS OBJECT XK           
1 65731U 98067XK  26066.15825204  .01908354  35408-2  14563-2 0  9992
2 65731  51.6136  59.5555 0003835 103.1838 256.9606 16.15260171 26498
STARLINK-36618          
1 67847U 26033AC  26066.16670139 -.00128239  13645-4 -37049-3 0  9995
2 67847  42.9837 284.7276 0001766 263.6510 254.7320 15.91681470  4252
