[{"OBJECT_NAME":"QIANKUN-1","OBJECT_ID":"2023-103B","EPOCH":"2026-03-07T02:09:39.513888","MEAN_MOTION":16.07904604,"ECCENTRICITY":0.0035441,"INCLINATION":96.1945,"RA_OF_ASC_NODE":117.7831,"ARG_OF_PERICENTER":171.2462,"MEAN_ANOMALY":188.945,"EPHEMERIS_TYPE":0,"CLASSIFICATION_TYPE":"U","NORAD_CAT_ID":57422,"ELEMENT_SET_NO":999,"REV_AT_EPOCH":15089,"BSTAR":-2.0836e-7,"MEAN_MOTION_DOT":-7.17e-6,"MEAN_MOTION_DDOT":1.6817e-6},{"OBJECT_NAME":"OBJECT B","OBJECT_ID":"2023-104B","EPOCH":"2026-03-06T20:23:50.840736","MEAN_MOTION":15.95006754,"ECCENTRICITY":0.0003298,"INCLINATION":97.2687,"RA_OF_ASC_NODE":154.4383,"ARG_OF_PERICENTER":311.8555,"MEAN_ANOMALY":48.2439,"EPHEMERIS_TYPE":0,"CLASSIFICATION_TYPE":"U","NORAD_CAT_ID":57425,"ELEMENT_SET_NO":999,"REV_AT_EPOCH":14762,"BSTAR":0.0008874,"MEAN_MOTION_DOT":0.00341259,"MEAN_MOTION_DDOT":4.778e-5},{"OBJECT_NAME":"INTUITION-1","OBJECT_ID":"2023-174CW","EPOCH":"2026-03-07T04:58:50.617056","MEAN_MOTION":15.93359015,"ECCENTRICITY":0.0003539,"INCLINATION":97.3739,"RA_OF_ASC_NODE":162.3954,"ARG_OF_PERICENTER":240.2673,"MEAN_ANOMALY":119.8249,"EPHEMERIS_TYPE":0,"CLASSIFICATION_TYPE":"U","NORAD_CAT_ID":58565,"ELEMENT_SET_NO":999,"REV_AT_EPOCH":13048,"BSTAR":0.0015003,"MEAN_MOTION_DOT":0.00528849,"MEAN_MOTION_DDOT":0.00011357},{"OBJECT_NAME":"STARLINK-31145","OBJECT_ID":"2024-011D","EPOCH":"2026-03-07T04:00:03.000096","MEAN_MOTION":15.94671893,"ECCENTRICITY":0.001192,"INCLINATION":53.1222,"RA_OF_ASC_NODE":15.1159,"ARG_OF_PERICENTER":99.8656,"MEAN_ANOMALY":143.6803,"EPHEMERIS_TYPE":0,"CLASSIFICATION_TYPE":"U","NORAD_CAT_ID":58768,"ELEMENT_SET_NO":999,"REV_AT_EPOCH":602,"BSTAR":0.0013276,"MEAN_MOTION_DOT":0.00519472,"MEAN_MOTION_DDOT":0.00012028},{"OBJECT_NAME":"SENTRY","OBJECT_ID":"2024-043AU","EPOCH":"2026-03-06T22:32:34.113408","MEAN_MOTION":15.92278298,"ECCENTRICITY":0.0004619,"INCLINATION":97.5288,"RA_OF_ASC_NODE":219.9826,"ARG_OF_PERICENTER":247.0039,"MEAN_ANOMALY":113.0748,"EPHEMERIS_TYPE":0,"CLASSIFICATION_TYPE":"U","NORAD_CAT_ID":59140,"ELEMENT_SET_NO":999,"REV_AT_EPOCH":11262,"BSTAR":0.0011436,"MEAN_MOTION_DOT":0.00381404,"MEAN_MOTION_DDOT":5.7742e-5},{"OBJECT_NAME":"OBJECT B","OBJECT_ID":"2024-085B","EPOCH":"2026-03-07T05:51:57.978720","MEAN_MOTION":15.96827108,"ECCENTRICITY":0.0010388,"INCLINATION":97.3361,"RA_OF_ASC_NODE":158.437,"ARG_OF_PERICENTER":297.0999,"MEAN_ANOMALY":62.9218,"EPHEMERIS_TYPE":0,"CLASSIFICATION_TYPE":"U","NORAD_CAT_ID":59678,"ELEMENT_SET_NO":999,"REV_AT_EPOCH":10302,"BSTAR":0.0014728,"MEAN_MOTION_DOT":0.00627374,"MEAN_MOTION_DDOT":0.00017025},{"OBJECT_NAME":"OBJECT D","OBJECT_ID":"2024-095D","EPOCH":"2026-03-07T01:35:24.501984","MEAN_MOTION":15.94606565,"ECCENTRICITY":0.0005463,"INCLINATION":97.5286,"RA_OF_ASC_NODE":170.0092,"ARG_OF_PERICENTER":260.2618,"MEAN_ANOMALY":99.804,"EPHEMERIS_TYPE":0,"CLASSIFICATION_TYPE":"U","NORAD_CAT_ID":59813,"ELEMENT_SET_NO":999,"REV_AT_EPOCH":10047,"BSTAR":0.0018474,"MEAN_MOTION_DOT":0.00695319,"MEAN_MOTION_DDOT":0.00020541},{"OBJECT_NAME":"RUZAEVKA 390 (RS44S)","OBJECT_ID":"2024-199AH","EPOCH":"2026-03-07T04:14:54.364704","MEAN_MOTION":16.11800645,"ECCENTRICITY":0.0002752,"INCLINATION":97.2781,"RA_OF_ASC_NODE":308.3911,"ARG_OF_PERICENTER":172.4659,"MEAN_ANOMALY":187.6668,"EPHEMERIS_TYPE":0,"CLASSIFICATION_TYPE":"U","NORAD_CAT_ID":61766,"ELEMENT_SET_NO":999,"REV_AT_EPOCH":11912,"BSTAR":0.0018125,"MEAN_MOTION_DOT":0.01804327,"MEAN_MOTION_DDOT":0.0027609},{"OBJECT_NAME":"BANDWAGON-2 OBJECT X","OBJECT_ID":"2024-247X","EPOCH":"2026-03-07T00:37:38.035488","MEAN_MOTION":15.95935511,"ECCENTRICITY":0.0012219,"INCLINATION":44.9847,"RA_OF_ASC_NODE":68.6418,"ARG_OF_PERICENTER":97.4102,"MEAN_ANOMALY":262.8196,"EPHEMERIS_TYPE":0,"CLASSIFICATION_TYPE":"U","NORAD_CAT_ID":62398,"ELEMENT_SET_NO":999,"REV_AT_EPOCH":6807,"BSTAR":0.0023264,"MEAN_MOTION_DOT":0.00985197,"MEAN_MOTION_DDOT":0.00044876},{"OBJECT_NAME":"SZ-19 DEB","OBJECT_ID":"2024-194E","EPOCH":"2026-03-06T23:50:22.340832","MEAN_MOTION":16.18078834,"ECCENTRICITY":0.0011254,"INCLINATION":41.4583,"RA_OF_ASC_NODE":178.3648,"ARG_OF_PERICENTER":26.2032,"MEAN_ANOMALY":333.9395,"EPHEMERIS_TYPE":0,"CLASSIFICATION_TYPE":"U","NORAD_CAT_ID":63801,"ELEMENT_SET_NO":999,"REV_AT_EPOCH":4878,"BSTAR":0.0004718,"MEAN_MOTION_DOT":0.00835167,"MEAN_MOTION_DDOT":7.7738e-6},{"OBJECT_NAME":"COSMOS 2591","OBJECT_ID":"2025-182A","EPOCH":"2026-03-05T17:44:49.431264","MEAN_MOTION":15.9640134,"ECCENTRICITY":0.00079445,"INCLINATION":96.5938,"RA_OF_ASC_NODE":358.0583,"ARG_OF_PERICENTER":172.1859,"MEAN_ANOMALY":187.9545,"EPHEMERIS_TYPE":0,"CLASSIFICATION_TYPE":"U","NORAD_CAT_ID":65267,"ELEMENT_SET_NO":999,"REV_AT_EPOCH":3119,"BSTAR":0.00018325759,"MEAN_MOTION_DOT":0.00075753,"MEAN_MOTION_DDOT":4.042958e-6},{"OBJECT_NAME":"COSMOS 2592","OBJECT_ID":"2025-182B","EPOCH":"2026-03-06T22:42:26.945280","MEAN_MOTION":15.96450534,"ECCENTRICITY":0.0006567,"INCLINATION":96.5888,"RA_OF_ASC_NODE":359.1985,"ARG_OF_PERICENTER":170.8591,"MEAN_ANOMALY":189.2809,"EPHEMERIS_TYPE":0,"CLASSIFICATION_TYPE":"U","NORAD_CAT_ID":65268,"ELEMENT_SET_NO":999,"REV_AT_EPOCH":3138,"BSTAR":1.1358e-5,"MEAN_MOTION_DOT":4.153e-5,"MEAN_MOTION_DDOT":1.8599e-6},{"OBJECT_NAME":"COSMOS 2593","OBJECT_ID":"2025-182C","EPOCH":"2026-03-05T13:59:10.158144","MEAN_MOTION":15.96412483,"ECCENTRICITY":0.0007309,"INCLINATION":96.5882,"RA_OF_ASC_NODE":357.8369,"ARG_OF_PERICENTER":166.2302,"MEAN_ANOMALY":193.9177,"EPHEMERIS_TYPE":0,"CLASSIFICATION_TYPE":"U","NORAD_CAT_ID":65269,"ELEMENT_SET_NO":999,"REV_AT_EPOCH":3116,"BSTAR":5.8016e-5,"MEAN_MOTION_DOT":0.00023585,"MEAN_MOTION_DDOT":2.0678e-6},{"OBJECT_NAME":"COSMOS 2594","OBJECT_ID":"2025-182D","EPOCH":"2026-03-06T03:54:06.543936","MEAN_MOTION":15.96514018,"ECCENTRICITY":0.0007121,"INCLINATION":96.5909,"RA_OF_ASC_NODE":358.374,"ARG_OF_PERICENTER":166.0438,"MEAN_ANOMALY":194.1039,"EPHEMERIS_TYPE":0,"CLASSIFICATION_TYPE":"U","NORAD_CAT_ID":65270,"ELEMENT_SET_NO":999,"REV_AT_EPOCH":3127,"BSTAR":0.00025822261,"MEAN_MOTION_DOT":0.00107567,"MEAN_MOTION_DDOT":6.280607e-6},{"OBJECT_NAME":"ISS OBJECT XK","OBJECT_ID":"1998-067XK","EPOCH":"2026-03-07T03:47:52.976256","MEAN_MOTION":16.15260171,"ECCENTRICITY":0.0003835,"INCLINATION":51.6136,"RA_OF_ASC_NODE":59.5555,"ARG_OF_PERICENTER":103.1838,"MEAN_ANOMALY":256.9606,"EPHEMERIS_TYPE":0,"CLASSIFICATION_TYPE":"U","NORAD_CAT_ID":65731,"ELEMENT_SET_NO":999,"REV_AT_EPOCH":2649,"BSTAR":0.0014563,"MEAN_MOTION_DOT":0.01908354,"MEAN_MOTION_DDOT":0.0035408},{"OBJECT_NAME":"STARLINK-36618","OBJECT_ID":"2026-033AC","EPOCH":"2026-03-07T04:00:03.000096","MEAN_MOTION":15.9168147,"ECCENTRICITY":0.0001766,"INCLINATION":42.9837,"RA_OF_ASC_NODE":284.7276,"ARG_OF_PERICENTER":263.651,"MEAN_ANOMALY":254.732,"EPHEMERIS_TYPE":0,"CLASSIFICATION_TYPE":"U","NORAD_CAT_ID":67847,"ELEMENT_SET_NO":999,"REV_AT_EPOCH":425,"BSTAR":-0.00037049,"MEAN_MOTION_DOT":-0.00128239,"MEAN_MOTION_DDOT":1.3645e-5}]
